KAZSTSAT                
1 43783U 18099AB  26192.04730664  .00000896  00000+0  76624-4 0  9993
2 43783  97.4317 222.8991 0007630 357.1189   2.9990 14.99949090414889
SAUDISAT 5A             
1 43831U 18102A   26192.19595977  .00003430  00000+0  12692-3 0  9995
2 43831  97.3060 253.3158 0010779  56.3188 303.9078 15.28295416419342
SAUDISAT 5B             
1 43833U 18102C   26192.21086817  .00003186  00000+0  11723-3 0  9990
2 43833  97.3167 256.4437 0011531  57.6265 302.6090 15.28539204419462
GAOFEN-10R              
1 44622U 19066A   26192.17315707  .00000619  00000+0  82789-4 0  9994
2 44622  98.0514 145.9281 0007045  63.5685 296.6250 14.83051865365933
CARTOSAT-3              
1 44804U 19081A   26192.19742709  .00002669  00000+0  12942-3 0  9991
2 44804  97.4297 253.6767 0013320  73.8419 286.4281 15.19306280367111
GAOFEN-12 01            
1 44819U 19082A   26192.20844294  .00000192  00000+0  31700-4 0  9995
2 44819  97.8106 197.9544 0001181  52.1404 307.9915 14.80477522357644
CSG-1                   
1 44873U 19092A   26192.15263109  .00000212  00000+0  33169-4 0  9994
2 44873  97.8893  15.4087 0001495  90.7320 269.4065 14.82149228355025
NEMO-HD                 
1 46277U 20061F   26192.16103172  .00007439  00000+0  15921-3 0  9999
2 46277  97.1912 253.8772 0001065  84.0989 276.0382 15.45082023325683
SENTINEL-6A             
1 46984U 20086A   26191.11788431 -.00000069  00000+0 -35327-4 0  9999
2 46984  66.0414  87.4266 0007814 269.9813  90.0306 12.80930082263265
CAS500-1                
1 47932U 21022A   26192.15482640  .00003282  00000+0  15481-3 0  9998
2 47932  97.3876  86.9200 0004760 182.1987 177.9228 15.20154254294409
GAOFEN-12 02            
1 48079U 21026A   26192.22208802  .00000194  00000+0  32453-4 0  9997
2 48079  97.9931 190.3055 0005581 142.6668 217.4933 14.80314274285315
PLEIADES NEO 3          
1 48268U 21034A   26192.22717223  .00000530  00000+0  73928-4 0  9994
2 48268  97.8939 266.6477 0001325  95.8545 264.2819 14.81676338281213
PLEIADES NEO 4          
1 49070U 21073E   26192.19339755  .00000401  00000+0  57529-4 0  9991
2 49070  97.8938 266.6108 0001342  92.5783 267.5584 14.81673985264921
LANDSAT 9               
1 49260U 21088A   26191.81894686  .00000149  00000+0  43075-4 0  9995
2 49260  98.2341 261.7009 0001513 185.5660 174.5522 14.57104463254446
CSG-2                   
1 51444U 22008A   26192.18634262 -.00000215  00000+0 -20471-4 0  9999
2 51444  97.8896  15.4365 0001500  86.1222 274.0162 14.82146339240142
GAOFEN-12 03            
1 52912U 22069A   26192.18853662  .00001131  00000+0  15599-3 0  9994
2 52912  97.8252  79.4507 0002508  76.9370 283.2122 14.80074087218160
SWOT                    
1 54754U 22173A   26192.13978139  .00000055  00000+0  38932-4 0  9999
2 54754  77.6106   2.9728 0000306  74.4127 285.7058 14.00172091182502
GAOFEN-12 04            
1 57654U 23123A   26192.20742994  .00000514  00000+0  75117-4 0  9999
2 57654  97.9105 109.8675 0003705  58.6246 301.5328 14.79770850156183
PARS 1                  
1 59065U 24039Q   26192.19848784  .00007572  00000+0  15564-3 0  9996
2 59065  97.4831 173.8845 0010273  39.8316 320.3685 15.46231750132353
RESURS-P 4              
1 59371U 24061A   26192.16589318  .00001826  00000+0  61039-4 0  9998
2 59371  97.2754 139.6499 0003249  96.1546 264.0067 15.32265361127437
LEGION 1                
1 59625U 24081A   26192.17499920  .00002232  00000+0  11689-3 0  9999
2 59625  97.5013 269.7773 0007692 286.5207  73.5181 15.16827382121179
LEGION 2                
1 59626U 24081B   26192.20532609  .00002069  00000+0  10866-3 0  9990
2 59626  97.5013 269.9042 0010022 249.1017 110.9143 15.16806503121183
ALOS-4 (DAICHI-4)       
1 60182U 24123A   26192.23582353  .00000783  00000+0  11167-3 0  9996
2 60182  97.9220 289.0666 0001607  97.6663 262.4731 14.79474886109436
LEGION 3                
1 60452U 24146A   26192.18422708  .00002043  00000+0  11925-3 0  9995
2 60452  45.0013 261.8876 0008597 312.7802  47.2352 15.15639908105660
LEGION 4                
1 60453U 24146B   26191.92040611  .00002650  00000+0  15055-3 0  9998
2 60453  45.0025 355.1681 0008959  87.4344 272.7560 15.15659104104478
SENTINEL-2C             
1 60989U 24157A   26192.15856554  .00000029  00000+0  27780-4 0  9998
2 60989  98.5685 266.6006 0000947  99.1815 260.9475 14.30814932 96412
IONOSFERA-M 1           
1 61735U 24199A   26192.17489696  .00000023  00000+0  29712-4 0  9996
2 61735  98.7142  65.0904 0002200  78.1100 282.0324 14.22758561131119
IONOSFERA-M 2           
1 61736U 24199B   26192.13880928  .00000022  00000+0  29618-4 0  9990
2 61736  98.7141  64.9652 0000374 109.1497 250.9722 14.22761950134239
PRSC-EO1                
1 62725U 25012A   26192.19097179  .00003926  00000+0  19769-3 0  9999
2 62725  97.4221 264.1807 0006618 161.6806 198.4667 15.17750574 81839
GOSAT-GW (IBUKI GW)     
1 64694U 25141A   26192.19002348  .00000255  00000+0  53352-4 0  9992
2 64694  98.0566 129.1171 0001454  85.6827 274.4543 14.67555117 55367
