OBJECT_NAME,OBJECT_ID,EPOCH,MEAN_MOTION,ECCENTRICITY,INCLINATION,RA_OF_ASC_NODE,ARG_OF_PERICENTER,MEAN_ANOMALY,EPHEMERIS_TYPE,CLASSIFICATION_TYPE,NORAD_CAT_ID,ELEMENT_SET_NO,REV_AT_EPOCH,BSTAR,MEAN_MOTION_DOT,MEAN_MOTION_DDOT
KAZSTSAT,2018-099AB,2026-07-11T01:08:07.293696,14.99949090,.000763,97.4317,222.8991,357.1189,2.9990,0,U,43783,999,41488,.76624E-4,.896E-5,0
SAUDISAT 5A,2018-102A,2026-07-11T04:42:10.924128,15.28295416,.0010779,97.3060,253.3158,56.3188,303.9078,0,U,43831,999,41934,.12692E-3,.343E-4,0
SAUDISAT 5B,2018-102C,2026-07-11T05:03:39.009888,15.28539204,.0011531,97.3167,256.4437,57.6265,302.6090,0,U,43833,999,41946,.11723E-3,.3186E-4,0
GAOFEN-10R,2019-066A,2026-07-11T04:09:20.770848,14.83051865,.0007045,98.0514,145.9281,63.5685,296.6250,0,U,44622,999,36593,.82789E-4,.619E-5,0
CARTOSAT-3,2019-081A,2026-07-11T04:44:17.700576,15.19306280,.001332,97.4297,253.6767,73.8419,286.4281,0,U,44804,999,36711,.12942E-3,.2669E-4,0
GAOFEN-12 01,2019-082A,2026-07-11T05:00:09.470016,14.80477522,.0001181,97.8106,197.9544,52.1404,307.9915,0,U,44819,999,35764,.317E-4,.192E-5,0
CSG-1,2019-092A,2026-07-11T03:39:47.326176,14.82149228,.0001495,97.8893,15.4087,90.7320,269.4065,0,U,44873,999,35502,.33169E-4,.212E-5,0
NEMO-HD,2020-061F,2026-07-11T03:51:53.140608,15.45082023,.0001065,97.1912,253.8772,84.0989,276.0382,0,U,46277,999,32568,.15921E-3,.7439E-4,0
SENTINEL-6A,2020-086A,2026-07-10T02:49:45.204384,12.80930082,.00078145,66.0414,87.4266,269.9813,90.0306,0,U,46984,999,26326,-.35327187E-4,-.69E-6,0
CAS500-1,2021-022A,2026-07-11T03:42:57.000960,15.20154254,.000476,97.3876,86.9200,182.1987,177.9228,0,U,47932,999,29440,.15481E-3,.3282E-4,0
GAOFEN-12 02,2021-026A,2026-07-11T05:19:48.404928,14.80314274,.0005581,97.9931,190.3055,142.6668,217.4933,0,U,48079,999,28531,.32453E-4,.194E-5,0
PLEIADES NEO 3,2021-034A,2026-07-11T05:27:07.680672,14.81676338,.0001325,97.8939,266.6477,95.8545,264.2819,0,U,48268,999,28121,.73928E-4,.53E-5,0
PLEIADES NEO 4,2021-073E,2026-07-11T04:38:29.548320,14.81673985,.0001342,97.8938,266.6108,92.5783,267.5584,0,U,49070,999,26492,.57529E-4,.401E-5,0
LANDSAT 9,2021-088A,2026-07-10T19:39:17.008704,14.57104463,.0001513,98.2341,261.7009,185.5660,174.5522,0,U,49260,999,25444,.43075E-4,.149E-5,0
CSG-2,2022-008A,2026-07-11T04:28:20.002368,14.82146339,.00015,97.8896,15.4365,86.1222,274.0162,0,U,51444,999,24014,-.20471E-4,-.215E-5,0
GAOFEN-12 03,2022-069A,2026-07-11T04:31:29.563968,14.80074087,.0002508,97.8252,79.4507,76.9370,283.2122,0,U,52912,999,21816,.15599E-3,.1131E-4,0
SWOT,2022-173A,2026-07-11T03:21:17.112096,14.00172091,.0000306,77.6106,2.9728,74.4127,285.7058,0,U,54754,999,18250,.38932E-4,.55E-6,0
GAOFEN-12 04,2023-123A,2026-07-11T04:58:41.946816,14.79770850,.0003705,97.9105,109.8675,58.6246,301.5328,0,U,57654,999,15618,.75117E-4,.514E-5,0
PARS 1,2024-039Q,2026-07-11T04:45:49.349376,15.46231750,.0010273,97.4831,173.8845,39.8316,320.3685,0,U,59065,999,13235,.15564E-3,.7572E-4,0
RESURS-P 4,2024-061A,2026-07-11T03:58:53.170752,15.32265361,.0003249,97.2754,139.6499,96.1546,264.0067,0,U,59371,999,12743,.61039E-4,.1826E-4,0
LEGION 1,2024-081A,2026-07-11T04:11:59.930880,15.16827382,.0007692,97.5013,269.7773,286.5207,73.5181,0,U,59625,999,12117,.11689E-3,.2232E-4,0
LEGION 2,2024-081B,2026-07-11T04:55:40.174176,15.16806503,.0010022,97.5013,269.9042,249.1017,110.9143,0,U,59626,999,12118,.10866E-3,.2069E-4,0
ALOS-4 (DAICHI-4),2024-123A,2026-07-11T05:39:35.152992,14.79474886,.0001607,97.9220,289.0666,97.6663,262.4731,0,U,60182,999,10943,.11167E-3,.783E-5,0
LEGION 3,2024-146A,2026-07-11T04:25:17.219712,15.15639908,.0008597,45.0013,261.8876,312.7802,47.2352,0,U,60452,999,10566,.11925E-3,.2043E-4,0
LEGION 4,2024-146B,2026-07-10T22:05:23.087904,15.15659104,.0008959,45.0025,355.1681,87.4344,272.7560,0,U,60453,999,10447,.15055E-3,.265E-4,0
SENTINEL-2C,2024-157A,2026-07-11T03:48:20.062656,14.30814932,.0000947,98.5685,266.6006,99.1815,260.9475,0,U,60989,999,9641,.2778E-4,.29E-6,0
IONOSFERA-M 1,2024-199A,2026-07-11T04:11:51.097344,14.22758561,.00022,98.7142,65.0904,78.1100,282.0324,0,U,61735,999,13111,.29712E-4,.23E-6,0
IONOSFERA-M 2,2024-199B,2026-07-11T03:19:53.121792,14.22761950,.0000374,98.7141,64.9652,109.1497,250.9722,0,U,61736,999,13423,.29618E-4,.22E-6,0
PRSC-EO1,2025-012A,2026-07-11T04:34:59.962656,15.17750574,.0006618,97.4221,264.1807,161.6806,198.4667,0,U,62725,999,8183,.19769E-3,.3926E-4,0
GOSAT-GW (IBUKI GW),2025-141A,2026-07-11T04:33:38.028672,14.67555117,.0001454,98.0566,129.1171,85.6827,274.4543,0,U,64694,999,5536,.53352E-4,.255E-5,0
